CUTE-1 (CO-55)          
1 27844U 03031E   26135.02036281  .00000192  00000+0  10194-3 0  9990
2 27844  98.6747 143.9960 0008308 283.7676  76.2578 14.24314130186955
CUBESAT XI-IV (CO-57)   
1 27848U 03031J   26134.00824506  .00000162  00000+0  90172-4 0  9998
2 27848  98.6778 142.7365 0008423 308.1331  51.9088 14.23601767186519
CUBESAT XI-V            
1 28895U 05043F   26134.36035510  .00000843  00000+0  14086-3 0  9999
2 28895  98.2947 289.2813 0013075 316.5599  43.4577 14.72538248 96773
CUTE-1.7+APD II (CO-65) 
1 32785U 08021C   26135.23222227  .00003342  00000+0  21474-3 0  9997
2 32785  97.8261 115.9779 0010153 133.5668 226.6405 15.09118471980224
CANX-2                  
1 32790U 08021H   26134.39090769  .00002037  00000+0  14656-3 0  9997
2 32790  97.8624 113.5237 0011316 149.0638 211.1257 15.05365543979724
SEEDS II (CO-66)        
1 32791U 08021J   26135.21922797  .00009574  00000+0  31670-3 0  9993
2 32791  97.7518 131.5757 0004929  79.8150 280.3646 15.31561883982249
SWISSCUBE               
1 35932U 09051B   26135.19069329  .00000568  00000+0  12199-3 0  9996
2 35932  98.4057  42.5027 0006036 326.5843  33.4976 14.62413285884337
BEESAT-1                
1 35933U 09051C   26135.18308193  .00000474  00000+0  10508-3 0  9999
2 35933  98.3986  42.1991 0004881 345.2860  14.8198 14.61662637884365
ITUPSAT1                
1 35935U 09051E   26135.28216561  .00000442  00000+0  10142-3 0  9998
2 35935  98.4071  41.5264 0007287 351.7541   8.3537 14.60387457883930
TISAT 1                 
1 36799U 10035E   26135.30780335  .00010669  00000+0  36576-3 0  9990
2 36799  98.0698  78.9793 0003321  48.8660 311.2865 15.30389909862672
AEROCUBE 4.5A           
1 38767U 12048K   26135.30148786  .00106906  00000+0  60445-3 0  9993
2 38767  64.6282 145.4797 0018703 216.8942 143.0926 15.78319443367443
STRAND-1                
1 39090U 13009E   26135.05506085  .00000173  00000+0  72552-4 0  9995
2 39090  98.3916 316.1065 0008063 337.9645  22.1195 14.37142674692304
BRITE-AUSTRIA           
1 39091U 13009F   26135.05371122  .00000102  00000+0  49268-4 0  9998
2 39091  98.3988 315.3111 0009805 346.0852  14.0063 14.36528164692296
NEE-01 PEGASO           
1 39151U 13018B   26135.17018785  .00001148  00000+0  11487-3 0  9993
2 39151  98.1181 278.2422 0011276 272.9700  87.0228 14.93488233705778
POPACS 2                
1 39269U 13055E   26135.08699507  .00010306  00000+0  17713-3 0  9995
2 39269  80.9925 182.0624 0418985 300.2750  55.7619 14.90446065658280
POPACS 3                
1 39270U 13055F   26135.05758050  .00011765  00000+0  28063-3 0  9993
2 39270  81.0010 265.0824 0554861 170.7364 190.4611 14.55291689633731
ZACUBE-1 (TSHEPISOSAT)  
1 39417U 13066B   26134.87679473  .00002987  00000+0  23526-3 0  9993
2 39417  97.8120  97.0329 0041625   5.1274 355.0367 15.00919176675736
WNISAT-1                
1 39423U 13066H   26134.99601166  .00000277  00000+0  59666-4 0  9992
2 39423  97.7161 286.5159 0162529 336.9265  22.4692 14.58019158661896
TRITON-1                
1 39427U 13066M   26135.27142481  .00001690  00000+0  20769-3 0  9999
2 39427  97.8270  45.8279 0089973 342.7327  17.0831 14.81555457669218
GOMX-1                  
1 39430U 13066Q   26135.29491249  .00001025  00000+0  16064-3 0  9999
2 39430  97.6510 337.8325 0128589 182.4944 177.5638 14.69321860665087
CUBEBUG-2 (LO-74)       
1 39440U 13066AA  26135.30373853  .00001554  00000+0  14843-3 0  9992
2 39440  97.8895  84.1550 0058982 135.2304 225.3698 14.93498377672084
NEE-02 KRYSAOR          
1 39441U 13066AB  26135.29387191  .00000892  00000+0  10339-3 0  9991
2 39441  97.8883  74.7502 0066259 176.2340 183.9388 14.86487605671319
FUNCUBE-1 (AO-73)       
1 39444U 13066AE  26135.23848084  .00004126  00000+0  26137-3 0  9998
2 39444  97.8261 106.0117 0035091 318.4805  41.3758 15.09040837674699
UWE-3                   
1 39446U 13066AG  26134.39102087  .00002385  00000+0  20878-3 0  9993
2 39446  97.8680  90.2510 0050701  72.7346 287.9414 14.96726381672529
BRITE-CA1 (TORONTO)     
1 40020U 14033L   26135.28817391  .00000383  00000+0  65374-4 0  9995
2 40020  97.9691 264.8323 0079115  23.2305 337.2446 14.72629433637371
DUCHIFAT-1              
1 40021U 14033M   26135.07908045  .00055137  00000+0  71894-3 0  9990
2 40021  98.0511 189.7623 0006035 180.7608 179.3638 15.58524426650586
NANOSATC-BR1            
1 40024U 14033Q   26135.06627805  .00010892  00000+0  37378-3 0  9992
2 40024  98.0745 164.5456 0001803 313.2683  46.8405 15.30355370648911
QB50P1                  
1 40025U 14033R   26134.99315497  .00005342  00000+0  26846-3 0  9997
2 40025  98.0977 143.8254 0008141 351.7406   8.3691 15.17718628647998
QB50P2                  
1 40032U 14033Y   26135.20661603  .00004142  00000+0  22762-3 0  9993
2 40032  98.0750 130.0473 0005746 292.8297  67.2326 15.14710726647679
PERSEUS-M2              
1 40037U 14033AD  26135.27704522  .00001372  00000+0  12951-3 0  9994
2 40037  97.9940  85.1538 0013270  53.4741 306.7699 14.95402663645860
